OBJECT_NAME,OBJECT_ID,EPOCH,MEAN_MOTION,ECCENTRICITY,INCLINATION,RA_OF_ASC_NODE,ARG_OF_PERICENTER,MEAN_ANOMALY,EPHEMERIS_TYPE,CLASSIFICATION_TYPE,NORAD_CAT_ID,ELEMENT_SET_NO,REV_AT_EPOCH,BSTAR,MEAN_MOTION_DOT,MEAN_MOTION_DDOT
SL-8 R/B,1985-006B,2026-07-07T01:45:33.556320,14.37842293,.00192396,74.0452,41.4689,285.6709,236.5957,0,U,15483,999,17118,.50448732E-4,.126E-5,0
SL-12 R/B(2),1985-042D,2026-07-07T10:35:56.588352,14.22009761,.00371848,71.1060,194.7231,297.5899,227.1538,0,U,15772,999,13141,.74761661E-4,.119E-5,0
SL-14 R/B,1985-069B,2026-07-07T03:52:01.396992,14.86531221,.00195175,82.5269,272.5818,152.4603,207.7652,0,U,15945,999,19058,.39380345E-4,.374E-5,0
SL-16 R/B,1985-097B,2026-07-07T02:25:35.464224,14.16613430,.00053246,71.0020,249.1538,67.6367,310.3299,0,U,16182,999,10414,-.10580117E-3,-.259E-5,0
SL-14 R/B,1986-006B,2026-07-07T07:21:48.606912,14.86964011,.00749408,82.5276,147.1798,235.4072,124.0061,0,U,16496,999,16698,.43483686E-4,.435E-5,0
COSMOS 1743,1986-034A,2026-07-07T07:33:14.402592,15.68954343,.0004994,82.5273,307.3026,202.4084,157.6960,0,U,16719,999,19894,.37056055E-3,.42788E-3,0
SL-14 R/B,1986-046B,2026-07-07T08:35:49.533216,14.85686408,.00228173,82.4832,327.1147,188.7723,171.3098,0,U,16792,999,14417,.43351841E-4,.402E-5,0
SL-14 R/B,1986-055B,2026-07-07T00:45:59.359392,14.85736494,.00174978,82.5197,14.4725,299.7077,222.5798,0,U,16882,999,13708,.38425605E-4,.358E-5,0
AJISAI (EGS),1986-061A,2026-07-07T14:33:40.163040,12.44516687,.00111116,50.0097,84.6059,232.5276,165.5115,0,U,16908,999,48293,-.17223153E-4,-.1E-5,0
SL-14 R/B,1987-024B,2026-07-07T09:58:14.130912,14.86227714,.00171933,82.5291,340.2357,220.5940,139.3996,0,U,17567,999,10591,.41505852E-4,.39E-5,0
COSMOS 1833,1987-027A,2026-07-07T03:24:01.279008,14.13063646,.00236794,70.9211,74.9275,21.8605,338.3520,0,U,17589,999,2719,.12295438E-3,.182E-5,0
SL-16 R/B,1987-027B,2026-07-06T21:49:05.114208,14.17174521,.00071049,71.0031,25.2686,290.7619,69.2743,0,U,17590,999,3223,-.82117304E-4,-.214E-5,0
SL-14 R/B,1987-038B,2026-07-07T09:42:45.620352,14.85457851,.0020558,82.5005,184.0278,126.2292,234.0828,0,U,17912,999,9700,.37525235E-4,.349E-5,0
COSMOS 1844,1987-041A,2026-07-07T06:15:12.219840,14.14576284,.00318181,70.8988,141.9654,206.4878,153.4619,0,U,17973,999,2049,.20582218E-3,.349E-5,0
SL-14 R/B,1987-055B,2026-07-07T02:11:09.091680,14.85723677,.00200426,82.4977,236.4660,343.0325,17.0218,0,U,18153,999,8766,.32077932E-4,.303E-5,0
COSMOS 1867,1987-060A,2026-07-07T09:25:44.981472,14.31517938,.00169682,65.0119,331.4703,282.0835,77.8348,0,U,18187,999,3707,.24252849E-4,-.36E-6,0
SL-14 R/B,1988-001B,2026-07-07T05:30:04.254624,14.85623320,.00174318,82.5130,82.9186,198.3726,161.6863,0,U,18749,999,5977,.34085022E-4,.32E-5,0
COSMOS 1933,1988-020A,2026-07-07T09:29:57.477696,15.18853235,.00055929,82.5133,132.4220,127.1577,233.0169,0,U,18958,999,6839,.15275003E-3,.3213E-4,0
SL-3 R/B,1988-032B,2026-07-07T13:44:57.604416,15.20993403,.00257488,97.5268,171.5955,171.5550,188.6124,0,U,19046,999,7032,.14245934E-3,.3113E-4,0
SL-16 R/B,1988-039B,2026-07-06T23:47:16.981728,14.19632005,.00210729,71.0130,176.2820,162.4747,197.7110,0,U,19120,999,97531,.53880552E-4,.66E-6,0
COSMOS 1953,1988-050A,2026-07-06T15:18:29.787264,15.30255230,.00121324,82.5065,38.4148,66.9975,293.2544,0,U,19210,999,5596,.18613445E-3,.5491E-4,0
SL-8 R/B,1988-053B,2026-07-07T03:51:40.578912,14.38975547,.00194651,74.0467,252.2397,40.3863,349.0507,0,U,19257,999,99378,.58384513E-4,.154E-5,0
COSMOS 1975,1988-093A,2026-07-07T10:27:55.119168,15.29598976,.0012572,82.5199,357.3283,106.5175,253.7447,0,U,19573,999,3770,.15884281E-3,.4599E-4,0
SL-14 R/B,1988-093B,2026-07-07T06:27:14.224896,14.85756560,.00207219,82.5319,289.7924,6.8592,21.7589,0,U,19574,999,1877,.35374789E-4,.333E-5,0
SL-16 R/B,1988-102B,2026-07-07T04:57:35.242560,14.16169142,.00147283,70.9995,260.0163,197.7374,162.3237,0,U,19650,999,94381,-.73960086E-4,-.194E-5,0
INTERCOSMOS 24,1989-080A,2026-07-07T12:09:32.458752,12.59688007,.11876149,82.6047,26.4205,14.7893,348.4971,0,U,20261,999,68188,.13227671E-3,.467E-5,0
SL-14 R/B,1989-080C,2026-07-07T03:53:29.546592,12.50577340,.12284393,82.5942,96.4743,271.6759,74.4350,0,U,20262,999,67508,.2961592E-4,.99E-6,0
DELTA 1 R/B,1989-089B,2026-07-07T00:20:46.199904,14.50744229,.00705449,97.0634,16.3996,105.2394,255.6618,0,U,20323,999,91303,.76554009E-4,.276E-5,0
ARIANE 40 R/B,1990-005H,2026-07-07T03:02:31.795296,14.39938063,.00097098,98.2948,245.1219,198.2846,161.7995,0,U,20443,999,90999,.77608769E-4,.202E-5,0
DELTA 2 R/B(1),1990-008B,2026-07-07T03:37:52.825440,15.72328797,.00626512,35.6000,101.7768,300.8841,58.5750,0,U,20453,999,94484,.55418266E-3,.86839E-3,0
